stk.v.11.0

# WrittenBy    STK_v11.7.1

BEGIN Ephemeris

    NumberOfEphemerisPoints		 2570

    ScenarioEpoch		 16 Jul 2020 03:40:48.000000

# Epoch in JDate format: 2459046.65333333333333
# Epoch in YYDDD format:   20198.15333333333333


    InterpolationMethod		 Lagrange

    InterpolationSamplesM1		 7

    CentralBody		 Earth

    CoordinateSystem		 ICRF

# Time of first point: 16 Jul 2020 03:40:48.000000000 UTCG = 2459046.65333333333333 JDate = 20198.15333333333333 YYDDD

    EphemerisTimePosVel		

 9.4125388999998744e+04  2.4704899601599034e+06 -2.3761515417714170e+06 -5.5498987905439697e+06  3.2330023522943538e+03 -5.9079080702354086e+03  3.9619971821974468e+03
 9.4174494999998744e+04  2.6248989111784743e+06 -2.6620010593096288e+06 -5.3458549546012850e+06  3.0539834588673557e+03 -5.7308799169021031e+03  4.3459655862573372e+03
 9.4221237999998746e+04  2.7634749059581985e+06 -2.9255796895788368e+06 -5.1344382644593604e+06  2.8737360061250547e+03 -5.5439534591348165e+03  4.6976044513310226e+03
 9.4272849999998740e+04  2.9064336592119439e+06 -3.2059568949306970e+06 -4.8823259015812399e+06  2.6642415385865465e+03 -5.3173898734612631e+03  5.0688265495198357e+03
 9.4326942999998733e+04  3.0443641340940604e+06 -3.4866763566664392e+06 -4.5980759291904625e+06  2.4337192298134601e+03 -5.0581133153614064e+03  5.4371888227219433e+03
 9.4377898999998739e+04  3.1626413507937863e+06 -3.7377766263992102e+06 -4.3126184501289846e+06  2.2071586989273983e+03 -4.7943909579681231e+03  5.7634209330538934e+03
 9.4427953999998732e+04  3.2673806250807736e+06 -3.9709098413407155e+06 -4.0165429846912278e+06  1.9765465269132205e+03 -4.5178919017480821e+03  6.0630486213757740e+03
 9.4481951999998739e+04  3.3672125063092662e+06 -4.2064037815454230e+06 -3.6809659834480267e+06  1.7197671133354966e+03 -4.2013770272326192e+03  6.3618621253978799e+03
 9.4532602999998737e+04  3.4480778564701984e+06 -4.4113451012459770e+06 -3.3521432075982951e+06  1.4722840141828592e+03 -3.8884203365986505e+03  6.6180186070697300e+03
 9.4580014999998733e+04  3.5122895488392445e+06 -4.5884968318538768e+06 -3.0331224387697177e+06  1.2356485049622506e+03 -3.5824258272985862e+03  6.8357485248266175e+03
 9.4629948999998727e+04  3.5676763725131280e+06 -4.7590737323755836e+06 -2.6865531826511831e+06  9.8208308022379026e+02 -3.2476213546771232e+03  7.0412016002676137e+03
 9.4680927999998734e+04  3.6110637414743961e+06 -4.9156638597902013e+06 -2.3228032672805600e+06  7.1954690577735528e+02 -2.8937790206252766e+03  7.2249357662832053e+03
 9.4737447999998738e+04  3.6434306495230026e+06 -5.0678356115548750e+06 -1.9094270165499107e+06  4.2533392552082654e+02 -2.4888577871670832e+03  7.3970737187441118e+03
 9.4788488999998735e+04  3.6583197453822368e+06 -5.1853215320879538e+06 -1.5285314456438154e+06  1.5789755195410800e+02 -2.1132927342774537e+03  7.5233466212578942e+03
 9.4839954999998736e+04  3.6594915376797710e+06 -5.2841644337450899e+06 -1.1386692224429287e+06 -1.1237738747137314e+02 -1.7265823230585872e+03  7.6221237799471228e+03
 9.4888141999998741e+04  3.6479849047824661e+06 -5.3585160168285146e+06 -7.6968510741344467e+05 -3.6507323370454588e+02 -1.3585194597427883e+03  7.6882854534489898e+03
 9.4935649999998743e+04  3.6247449323455454e+06 -5.4143464520520214e+06 -4.0337877457384230e+05 -6.1302259542758895e+02 -9.9120673174146395e+02  7.7283666833624848e+03
 9.4986448999998742e+04  3.5869147200559010e+06 -5.4546462615564102e+06 -1.0280631417984725e+04 -8.7592303176064684e+02 -5.9494595422355815e+02  7.7434515060516696e+03
 9.5024180999998745e+04  3.5502128659676467e+06 -5.4715166961181769e+06  2.8180542330947024e+05 -1.0691403230507915e+03 -2.9912978093700571e+02  7.7360449262331613e+03
 9.5070318999998752e+04  3.4954903604700626e+06 -5.4769577439985005e+06  6.3811637701754156e+05 -1.3023742247268895e+03  6.3322648683584077e+01  7.7054565666040808e+03
 9.5117260999998747e+04  3.4288636170414742e+06 -5.4653326302848570e+06  9.9862240564246266e+05 -1.5355558182592742e+03  4.3183392294579301e+02  7.6501221142814265e+03
 9.5159680999998745e+04  3.3593297371334773e+06 -5.4399708197200187e+06  1.3217073034879887e+06 -1.7420864179617597e+03  7.6364639267695179e+02  7.5792618453181831e+03
 9.5201768999998749e+04  3.2817742861534292e+06 -5.4009362459957283e+06  1.6388833982293867e+06 -1.9425218862900351e+03  1.0908522819492150e+03  7.4895843315076108e+03
 9.5244520999998742e+04  3.1944652046396923e+06 -5.3472457908622026e+06  1.9567833952308109e+06 -2.1410222043061590e+03  1.4203013608006795e+03  7.3789811275198199e+03
 9.5288372999998741e+04  3.0962190106900902e+06 -5.2776239347633049e+06  2.2775119371175813e+06 -2.3387483072623982e+03  1.7542652617140243e+03  7.2454279118883460e+03
 9.5335559999998746e+04  2.9809813295993367e+06 -5.1864724987959070e+06  2.6155749081832580e+06 -2.5442392730763745e+03  2.1081016663388782e+03  7.0794076732929943e+03
 9.5385224999998740e+04  2.8494315883632135e+06 -5.0726754665258937e+06  2.9623311318132780e+06 -2.7516720618302675e+03  2.4731127062643664e+03  6.8802877526523225e+03
 9.5435691999998744e+04  2.7054531712854076e+06 -4.9386935793837765e+06  3.3039289544924391e+06 -2.9524256556902042e+03  2.8349340655392707e+03  6.6530725337949834e+03
 9.5484639999998748e+04  2.5563827571599465e+06 -4.7915424196360698e+06  3.6237145897088097e+06 -3.1367928098656512e+03  3.1758769571227945e+03  6.4095382808461309e+03
 9.5537403999998744e+04  2.3858930841463669e+06 -4.6145413520040577e+06  3.9544436803604993e+06 -3.3233968675004262e+03  3.5310309945511385e+03  6.1224721341089089e+03
 9.5594422999998744e+04  2.1909984839535272e+06 -4.4026372912963796e+06  4.2940496967915697e+06 -3.5100690468645125e+03  3.8988131685123935e+03  5.7849546061961128e+03
 9.5654013999998744e+04  1.9764480550049660e+06 -4.1593295965684759e+06  4.6275588382042507e+06 -3.6876374071234322e+03  4.2636247248831514e+03  5.4035973584878957e+03
 9.5713367999998751e+04  1.7527832433680913e+06 -3.8960146288956231e+06  4.9363346187593453e+06 -3.8458268984200595e+03  4.6053207326972661e+03  4.9966044372112028e+03
 9.5771185999998750e+04  1.5264195768187905e+06 -3.6206593803011794e+06  5.2131806738344608e+06 -3.9812619194272988e+03  4.9157633865497564e+03  4.5760706429166958e+03
 9.5824499999998749e+04  1.3112102117408330e+06 -3.3514143253616686e+06  5.4463765599783482e+06 -4.0892792336063931e+03  5.1811549167418543e+03  4.1690050736046041e+03
 9.5879070999998745e+04  1.0854269768665349e+06 -3.0617551205933951e+06  5.6621159298169725e+06 -4.1826278461173697e+03  5.4309361680272268e+03  3.7349538399700559e+03
 9.5935790999998746e+04  8.4587989983893232e+05 -2.7469249703952153e+06  5.8607706821652930e+06 -4.2607904485443050e+03  5.6660098460171757e+03  3.2671368560489886e+03
 9.5992159999998752e+04  6.0396889418411395e+05 -2.4215575789198447e+06  6.0314806254339181e+06 -4.3190876193674512e+03  5.8738168704578748e+03  2.7874650055549214e+03
 9.6045800999998755e+04  3.7120862145008915e+05 -2.1017303041271633e+06  6.1684940355770299e+06 -4.3563903638702468e+03  6.0468324865001123e+03  2.3193332479082474e+03
 9.6092755999998757e+04  1.6617829292808461e+05 -1.8146482471738311e+06  6.2676198390556443e+06 -4.3743776454439530e+03  6.1779267731328682e+03  1.9017300706254646e+03
 9.6140149999998757e+04 -4.1296192683400877e+04 -1.5191039259918816e+06  6.3476406275572777e+06 -4.3785915353113060e+03  6.2905467743730233e+03  1.4742063001674805e+03
 9.6179053999998752e+04 -2.1153501018391759e+05 -1.2728265236234639e+06  6.3981063429840542e+06 -4.3715735886259417e+03  6.3679517140444414e+03  1.1197018548199990e+03
 9.6217981999998752e+04 -3.8142185800243373e+05 -1.0236501274216669e+06  6.4347495454110019e+06 -4.3551155356117079e+03  6.4316549696471247e+03  7.6257470474981528e+02
 9.6263405999998751e+04 -5.7859085978784529e+05 -7.3013741225391882e+05  6.4598843497131262e+06 -4.3240269154825073e+03  6.4884218015212982e+03  3.4382878966309374e+02
 9.6310532999998744e+04 -7.8134616358038189e+05 -4.2336398258562136e+05  6.4658275460914029e+06 -4.2783373958561833e+03  6.5271533293901648e+03 -9.1677398833983773e+01
 9.6357055999998745e+04 -9.7907993879384536e+05 -1.1920489822399779e+05  6.4515642011019820e+06 -4.2199509729368992e+03  6.5451289579915747e+03 -5.2134326058947181e+02
 9.6404221999998743e+04 -1.1764609865665743e+06  1.8952806781991897e+05  6.4167306514433576e+06 -4.1474688072658128e+03  6.5427469706937709e+03 -9.5533568772973763e+02
 9.6455710999998744e+04 -1.3876530009631750e+06  5.2583687818682357e+05  6.3554141221250631e+06 -4.0533283545426862e+03  6.5164640960473926e+03 -1.4256587563099174e+03
 9.6508278999998744e+04 -1.5978554653595253e+06  8.6713331609873823e+05  6.2679650851287283e+06 -3.9413958416297128e+03  6.4642204198228601e+03 -1.9003454100315726e+03
 9.6565336999998748e+04 -1.8188614705871637e+06  1.2336705193643803e+06  6.1450295001466954e+06 -3.8023136400212702e+03  6.3786849063157661e+03 -2.4071526757075308e+03
 9.6613178999998752e+04 -1.9977039291025917e+06  1.5366594507268355e+06  6.0198689646907449e+06 -3.6720242260172113e+03  6.2840949700463634e+03 -2.8236840156821791e+03
 9.6661448999998756e+04 -2.1715339868846363e+06  1.8372701584505166e+06  5.8736099567487910e+06 -3.5283777102355875e+03  6.1678317180653257e+03 -3.2346910051274626e+03
 9.6710988999998750e+04 -2.3424249014523434e+06  2.1394281985198790e+06  5.7031401973257232e+06 -3.3687069393495458e+03  6.0271465541544776e+03 -3.6454242947723174e+03
 9.6761107999998756e+04 -2.5069600954825557e+06  2.4374855923288325e+06  5.5102877935037324e+06 -3.1950997724088716e+03  5.8632744965860475e+03 -4.0480748022485732e+03
 9.6819909999998752e+04 -2.6884941665204675e+06  2.7759553966254750e+06  5.2588037189671760e+06 -2.9767576231068424e+03  5.6441543266044628e+03 -4.5020209629207848e+03
 9.6876282999998759e+04 -2.8500718148044823e+06  3.0875892647323767e+06  4.9932281999447607e+06 -2.7535008585025580e+03  5.4077780434485339e+03 -4.9165171847245447e+03
END Ephemeris
